NORAD_CAT_ID,OBJECT_NAME,OBJECT_TYPE,EPOCH,MEAN_MOTION,ECCENTRICITY,INCLINATION,RA_OF_ASC_NODE,ARG_OF_PERICENTER,MEAN_ANOMALY,BSTAR,MEAN_MOTION_DOT,MEAN_MOTION_DDOT,TLE_LINE0,TLE_LINE1,TLE_LINE2,SEMIMAJOR_AXIS,PERIOD,APOGEE,PERIGEE,DECAYED
55676.0,STARLINK-5300,PAYLOAD,2024-02-25 04:06:11,14.98315498,0.0002768,69.9998,219.2157,270.8202,89.264,5.5529e-05,5.69e-06,0.0,0 STARLINK-5300,1 55676U 23021BA  24056.17096620  .00000569  00000-0  55529-4 0  9995,2 55676  69.9998 219.2157 0002768 270.8202  89.2640 14.98315498 58107,6950.238,96.108,574.027,570.179,0.0
55676.0,STARLINK-5300,PAYLOAD,2024-02-25 13:42:59,14.98320233,0.000288,69.9995,218.2052,270.2286,89.8543,7.6116e-05,8.15e-06,0.0,0 STARLINK-5300,1 55676U 23021BA  24056.57152580  .00000815  00000-0  76116-4 0  9996,2 55676  69.9995 218.2052 0002880 270.2286  89.8543 14.98320233 58468,6950.223,96.108,574.09,570.086,0.0
55676.0,STARLINK-5300,PAYLOAD,2024-02-25 20:07:32,14.9832306,0.0002873,69.9995,217.5321,269.9347,90.1483,0.0001031,1.137e-05,0.0,0 STARLINK-5300,1 55676U 23021BA  24056.83856509  .00001137  00000-0  10310-3 0  9998,2 55676  69.9995 217.5321 0002873 269.9347  90.1483 14.98323060 58205,6950.214,96.107,574.076,570.083,0.0
55676.0,STARLINK-5300,PAYLOAD,2024-02-26 13:45:01,14.98321093,0.0002892,69.9995,215.6803,270.109,89.9738,7.5455e-05,8.07e-06,0.0,0 STARLINK-5300,1 55676U 23021BA  24057.57293161  .00000807  00000-0  75455-4 0  9994,2 55676  69.9995 215.6803 0002892 270.1090  89.9738 14.98321093 58617,6950.22,96.108,574.095,570.075,0.0
55676.0,STARLINK-5300,PAYLOAD,2024-02-26 20:09:33,14.98325089,0.0002872,69.9994,215.0071,270.0965,89.9865,0.00011403,1.268e-05,0.0,0 STARLINK-5300,1 55676U 23021BA  24057.83996948  .00001268  00000-0  11403-3 0  9990,2 55676  69.9994 215.0071 0002872 270.0965  89.9865 14.98325089 58659,6950.208,96.107,574.069,570.077,0.0
55676.0,STARLINK-5300,PAYLOAD,2024-02-27 13:47:02,14.98324513,0.0002863,69.9995,213.1557,270.3277,89.7554,4.5197e-05,4.46e-06,0.0,0 STARLINK-5300,1 55676U 23021BA  24058.57433415  .00000446  00000-0  45197-4 0  9992,2 55676  69.9995 213.1557 0002863 270.3277  89.7554 14.98324513 58763,6950.21,96.107,574.065,570.085,0.0
55676.0,STARLINK-5300,PAYLOAD,2024-02-27 20:11:34,14.98328438,0.0002857,69.9992,212.4817,270.0168,90.0663,4.5087e-05,4.45e-06,0.0,0 STARLINK-5300,1 55676U 23021BA  24058.84137248  .00000445  00000-0  45087-4 0  9994,2 55676  69.9992 212.4817 0002857 270.0168  90.0663 14.98328438 58508,6950.198,96.107,574.048,570.077,0.0
55676.0,STARLINK-5300,PAYLOAD,2024-02-28 13:49:03,14.98336972,0.0002368,69.9994,210.63,276.7466,83.3424,-7.5078e-05,-9.89e-06,0.0,0 STARLINK-5300,1 55676U 23021BA  24059.57573193 -.00000989  00000-0 -75078-4 0  9996,2 55676  69.9994 210.6300 0002368 276.7466  83.3424 14.98336972 58915,6950.171,96.107,573.682,570.391,0.0
55676.0,STARLINK-5300,PAYLOAD,2024-02-28 20:13:34,14.98373408,0.0002236,69.9998,209.958,267.8574,92.2329,-0.00064494,-7.788e-05,0.0,0 STARLINK-5300,1 55676U 23021BA  24059.84275912 -.00007788  00000-0 -64494-3 0  9997,2 55676  69.9998 209.9580 0002236 267.8574  92.2329 14.98373408 58654,6950.059,96.104,573.478,570.37,0.0
55676.0,STARLINK-5300,PAYLOAD,2024-02-29 12:14:56,14.98329473,0.0002894,69.9999,208.2749,270.7619,89.3208,8.0945e-05,8.73e-06,0.0,0 STARLINK-5300,1 55676U 23021BA  24060.51037124  .00000873  00000-0  80945-4 0  9990,2 55676  69.9999 208.2749 0002894 270.7619  89.3208 14.98329473 58754,6950.195,96.107,574.071,570.048,0.0
55676.0,STARLINK-5300,PAYLOAD,2024-02-29 13:51:04,14.98330515,0.0002893,69.9999,208.1067,270.5566,89.5262,6.4463e-05,6.76e-06,0.0,0 STARLINK-5300,1 55676U 23021BA  24060.57713091  .00000676  00000-0  64463-4 0  9998,2 55676  69.9999 208.1067 0002893 270.5566  89.5262 14.98330515 59060,6950.191,96.107,574.067,570.046,0.0
55676.0,STARLINK-5300,PAYLOAD,2024-02-29 18:39:28,14.9833024,0.0002869,70.0002,207.6019,270.3344,89.7487,8.4595e-05,9.17e-06,0.0,0 STARLINK-5300,1 55676U 23021BA  24060.77741055  .00000917  00000-0  84595-4 0  9997,2 55676  70.0002 207.6019 0002869 270.3344  89.7487 14.98330240 59093,6950.192,96.107,574.051,570.063,0.0
55676.0,STARLINK-5300,PAYLOAD,2024-03-01 13:53:03,14.98351535,0.0003025,70.0001,205.5817,269.6491,90.4321,0.00018844,2.157e-05,0.0,0 STARLINK-5300,1 55676U 23021BA  24061.57850816  .00002157  00000-0  18844-3 0  9993,2 55676  70.0001 205.5817 0003025 269.6491  90.4321 14.98351535 59214,6950.126,96.106,574.094,569.889,0.0
55676.0,STARLINK-5300,PAYLOAD,2024-03-01 18:41:26,14.98356779,0.0002955,70.0001,205.0768,269.6207,90.4613,0.00024237,2.802e-05,0.0,0 STARLINK-5300,1 55676U 23021BA  24061.77878093  .00002802  00000-0  24237-3 0  9992,2 55676  70.0001 205.0768 0002955 269.6207  90.4613 14.98356779 59242,6950.11,96.105,574.029,569.921,0.0
55676.0,STARLINK-5300,PAYLOAD,2024-03-02 12:18:57,14.98329014,0.0002589,70.002,203.228,249.4402,110.6479,-2.4134e-06,-1.22e-06,0.0,0 STARLINK-5300,1 55676U 23021BA  24062.51316182 -.00000122  00000-0 -24134-5 0  9994,2 55676  70.0020 203.2280 0002589 249.4402 110.6479 14.98329014 59054,6950.196,96.107,573.86,570.262,0.0
55676.0,STARLINK-5300,PAYLOAD,2024-03-02 13:55:05,14.9832803,0.0002617,70.0022,203.0598,248.021,112.0671,-1.0093e-05,-2.13e-06,0.0,0 STARLINK-5300,1 55676U 23021BA  24062.57992257 -.00000213  00000-0 -10093-4 0  9992,2 55676  70.0022 203.0598 0002617 248.0210 112.0671 14.98328030 59361,6950.199,96.107,573.883,570.245,0.0
55676.0,STARLINK-5300,PAYLOAD,2024-03-02 18:43:29,14.98323601,0.0003258,70.0003,202.5528,268.7706,91.308,-0.00010089,-1.296e-05,0.0,0 STARLINK-5300,1 55676U 23021BA  24062.78020787 -.00001296  00000-0 -10089-3 0  9991,2 55676  70.0003 202.5528 0003258 268.7706  91.3080 14.98323601 59393,6950.213,96.107,574.342,569.813,0.0
55676.0,STARLINK-5300,PAYLOAD,2024-03-03 12:20:58,14.98332326,0.0003259,69.9999,200.7003,270.4584,89.6201,-0.00022956,-2.831e-05,0.0,0 STARLINK-5300,1 55676U 23021BA  24063.51456619 -.00002831  00000-0 -22956-3 0  9992,2 55676  69.9999 200.7003 0003259 270.4584  89.6201 14.98332326 59206,6950.186,96.107,574.316,569.786,0.0
55676.0,STARLINK-5300,PAYLOAD,2024-03-03 18:45:30,14.98336529,0.0003194,69.9998,200.0259,268.6197,91.4596,-0.00015651,-1.96e-05,0.0,0 STARLINK-5300,1 55676U 23021BA  24063.78160119 -.00001960  00000-0 -15651-3 0  9994,2 55676  69.9998 200.0259 0003194 268.6197  91.4596 14.98336529 59542,6950.173,96.107,574.258,569.818,0.0
55676.0,STARLINK-5300,PAYLOAD,2024-03-04 12:22:58,14.98331341,0.0003353,70.0,198.175,270.2179,89.8595,0.00026642,3.087e-05,0.0,0 STARLINK-5300,1 55676U 23021BA  24064.51595453  .00003087  00000-0  26642-3 0  9991,2 55676  70.0000 198.1750 0003353 270.2179  89.8595 14.98331341 59657,6950.189,96.107,574.384,569.723,0.0
55676.0,STARLINK-5300,PAYLOAD,2024-03-04 18:47:30,14.98339333,0.000332,70.0002,197.5017,270.0951,89.9828,0.0003598,4.204e-05,0.0,0 STARLINK-5300,1 55676U 23021BA  24064.78298882  .00004204  00000-0  35980-3 0  9993,2 55676  70.0002 197.5017 0003320 270.0951  89.9828 14.98339333 59398,6950.164,96.106,574.336,569.722,0.0
55676.0,STARLINK-5300,PAYLOAD,2024-03-05 14:01:08,14.98322903,0.0003051,70.001,195.4817,268.7643,91.3166,-9.4329e-05,-1.218e-05,0.0,0 STARLINK-5300,1 55676U 23021BA  24065.58412749 -.00001218  00000-0 -94329-4 0  9999,2 55676  70.0010 195.4817 0003051 268.7643  91.3166 14.98322903 59819,6950.215,96.107,574.2,569.959,0.0
55676.0,STARLINK-5300,PAYLOAD,2024-03-05 18:49:32,14.98323653,0.0003247,70.0011,194.9777,269.8035,90.2751,-0.000101,-1.298e-05,0.0,0 STARLINK-5300,1 55676U 23021BA  24065.78440769 -.00001298  00000-0 -10100-3 0  9996,2 55676  70.0011 194.9777 0003247 269.8035  90.2751 14.98323653 59544,6950.213,96.107,574.334,569.821,0.0
55676.0,STARLINK-5300,PAYLOAD,2024-03-06 14:03:09,14.98333161,0.0003197,70.0012,192.9577,272.6751,87.4042,0.00044651,5.239e-05,0.0,0 STARLINK-5300,1 55676U 23021BA  24066.58552968  .00005239  00000-0  44651-3 0  9995,2 55676  70.0012 192.9577 0003197 272.6751  87.4042 14.98333161 59964,6950.183,96.107,574.27,569.826,0.0
55676.0,STARLINK-5300,PAYLOAD,2024-03-06 18:51:33,14.98337368,0.0003193,70.0014,192.4528,272.0295,88.0499,0.00082853,9.809e-05,0.0,0 STARLINK-5300,1 55676U 23021BA  24066.78581012  .00009809  00000-0  82853-3 0  9992,2 55676  70.0014 192.4528 0003193 272.0295  88.0499 14.98337368 59696,6950.17,96.107,574.254,569.816,0.0
55676.0,STARLINK-5300,PAYLOAD,2024-03-07 14:05:10,14.9833965,0.0002857,70.0024,190.4336,266.7252,93.358,0.00033644,3.925e-05,0.0,0 STARLINK-5300,1 55676U 23021BA  24067.58692890  .00003925  00000-0  33644-3 0  9995,2 55676  70.0024 190.4336 0002857 266.7252  93.3580 14.98339650 60116,6950.163,96.106,574.014,570.042,0.0
55676.0,STARLINK-5300,PAYLOAD,2024-03-08 12:31:03,14.98337159,0.0003162,70.0018,188.0768,270.4865,89.5931,0.00022733,2.621e-05,0.0,0 STARLINK-5300,1 55676U 23021BA  24068.52156739  .00002621  00000-0  22733-3 0  9996,2 55676  70.0018 188.0768 0003162 270.4865  89.5931 14.98337159 59952,6950.171,96.107,574.233,569.838,0.0
55676.0,STARLINK-5300,PAYLOAD,2024-03-09 10:56:56,14.98332967,0.0002996,70.0013,185.7186,271.3637,88.7179,0.0001178,1.313e-05,0.0,0 STARLINK-5300,1 55676U 23021BA  24069.45620815  .00001313  00000-0  11780-3 0  9997,2 55676  70.0013 185.7186 0002996 271.3637  88.7179 14.98332967 60090,6950.184,96.107,574.131,569.966,0.0
55676.0,STARLINK-5300,PAYLOAD,2024-03-09 14:09:12,14.98335944,0.0003166,70.0009,185.3824,269.6651,90.4145,0.00011282,1.254e-05,0.0,0 STARLINK-5300,1 55676U 23021BA  24069.58972572  .00001254  00000-0  11282-3 0  9992,2 55676  70.0009 185.3824 0003166 269.6651  90.4145 14.98335944 60413,6950.175,96.107,574.24,569.839,0.0
55676.0,STARLINK-5300,PAYLOAD,2024-03-10 01:22:08,14.98342063,0.0003296,70.0018,184.2056,267.494,92.5842,-0.00023324,-2.876e-05,0.0,0 STARLINK-5300,1 55676U 23021BA  24070.05704016 -.00002876  00000-0 -23324-3 0  9995,2 55676  70.0018 184.2056 0003296 267.4940  92.5842 14.98342063 60180,6950.156,96.106,574.311,569.73,0.0
